start=new Date('2022-01-18T00:00:00.000Z').valueOf();
sats=[{"APOAPSIS":"548.803","CLASSIFICATION_TYPE":"U","RCS_SIZE":"LARGE","MEAN_ANOMALY":"278.0254","REF_FRAME":"TEME","OBJECT_NAME":"STARLINK-2413","COUNTRY_CODE":"US","TLE_LINE1":"1 47827U 21018AS  22017.85011105 -.00001663  00000-0 -92746-4 0  9993","REV_AT_EPOCH":"4892","OBJECT_ID":"2021-018AS","LAUNCH_DATE":"2021-03-11","EPHEMERIS_TYPE":"0","MEAN_ELEMENT_THEORY":"SGP4","MEAN_MOTION_DOT":"-0.00001663","MEAN_MOTION_DDOT":"0.0000000000000","SITE":"AFETR","PERIOD":"95.592","ELEMENT_SET_NO":"999","INCLINATION":"53.0542","GP_ID":"194087789","TLE_LINE2":"2 47827  53.0542 188.5408 0002326  82.0998 278.0254 15.06407111 48929","NORAD_CAT_ID":"47827","EPOCH":"2022-01-17T20:24:09.594720","DECAY_DATE":null,"PERIAPSIS":"545.581","BSTAR":"-0.00009274600000","OBJECT_TYPE":"PAYLOAD","SEMIMAJOR_AXIS":"6925.327","ECCENTRICITY":"0.00023260","CENTER_NAME":"EARTH","ARG_OF_PERICENTER":"82.0998","RA_OF_ASC_NODE":"188.5408","TIME_SYSTEM":"UTC","FILE":"3276075","MEAN_MOTION":"15.06407111"},{"TIME_SYSTEM":"UTC","FILE":"3276075","MEAN_MOTION":"15.06397237","ECCENTRICITY":"0.00024330","ARG_OF_PERICENTER":"72.9765","RA_OF_ASC_NODE":"208.7235","CENTER_NAME":"EARTH","PERIAPSIS":"545.537","BSTAR":"0.00010762000000","SEMIMAJOR_AXIS":"6925.357","OBJECT_TYPE":"PAYLOAD","EPOCH":"2022-01-17T19:24:29.402496","NORAD_CAT_ID":"47828","DECAY_DATE":null,"SITE":"AFETR","PERIOD":"95.592","ELEMENT_SET_NO":"999","INCLINATION":"53.0549","TLE_LINE2":"2 47828  53.0549 208.7235 0002433  72.9765 287.1490 15.06397237 48581","GP_ID":"194088039","REV_AT_EPOCH":"4858","TLE_LINE1":"1 47828U 21018AT  22017.80867364  .00001321  00000-0  10762-3 0  9991","MEAN_ELEMENT_THEORY":"SGP4","LAUNCH_DATE":"2021-03-11","EPHEMERIS_TYPE":"0","OBJECT_ID":"2021-018AT","MEAN_MOTION_DDOT":"0.0000000000000","MEAN_MOTION_DOT":"0.00001321","OBJECT_NAME":"STARLINK-2415","COUNTRY_CODE":"US","APOAPSIS":"548.907","MEAN_ANOMALY":"287.1490","RCS_SIZE":"LARGE","CLASSIFICATION_TYPE":"U","REF_FRAME":"TEME"},{"SITE":"AFETR","ELEMENT_SET_NO":"999","PERIOD":"95.593","INCLINATION":"53.0545","TLE_LINE2":"2 47829  53.0545 208.6429 0002113  74.0129 286.1092 15.06388166 48571","GP_ID":"194088290","REV_AT_EPOCH":"4857","TLE_LINE1":"1 47829U 21018AU  22017.82710896 -.00002628  00000-0 -15765-3 0  9992","EPHEMERIS_TYPE":"0","LAUNCH_DATE":"2021-03-11","MEAN_ELEMENT_THEORY":"SGP4","OBJECT_ID":"2021-018AU","MEAN_MOTION_DDOT":"0.0000000000000","MEAN_MOTION_DOT":"-0.00002628","OBJECT_NAME":"STARLINK-2416","COUNTRY_CODE":"US","APOAPSIS":"548.713","RCS_SIZE":"LARGE","MEAN_ANOMALY":"286.1092","CLASSIFICATION_TYPE":"U","REF_FRAME":"TEME","TIME_SYSTEM":"UTC","FILE":"3276075","MEAN_MOTION":"15.06388166","ECCENTRICITY":"0.00021130","RA_OF_ASC_NODE":"208.6429","ARG_OF_PERICENTER":"74.0129","CENTER_NAME":"EARTH","PERIAPSIS":"545.786","BSTAR":"-0.00015765000000","SEMIMAJOR_AXIS":"6925.385","OBJECT_TYPE":"PAYLOAD","EPOCH":"2022-01-17T19:51:02.214144","NORAD_CAT_ID":"47829","DECAY_DATE":null},{"OBJECT_NAME":"STARLINK-2419","COUNTRY_CODE":"US","APOAPSIS":"548.886","RCS_SIZE":"LARGE","MEAN_ANOMALY":"285.2939","CLASSIFICATION_TYPE":"U","REF_FRAME":"TEME","SITE":"AFETR","PERIOD":"95.592","ELEMENT_SET_NO":"999","INCLINATION":"53.0541","TLE_LINE2":"2 47830  53.0541 208.3596 0002403  74.8316 285.2939 15.06397173 48588","GP_ID":"194089040","REV_AT_EPOCH":"4858","TLE_LINE1":"1 47830U 21018AV  22017.88976504 -.00000745  00000-0 -31097-4 0  9995","LAUNCH_DATE":"2021-03-11","EPHEMERIS_TYPE":"0","MEAN_ELEMENT_THEORY":"SGP4","OBJECT_ID":"2021-018AV","MEAN_MOTION_DDOT":"0.0000000000000","MEAN_MOTION_DOT":"-0.00000745","PERIAPSIS":"545.558","BSTAR":"-0.00003109700000","SEMIMAJOR_AXIS":"6925.357","OBJECT_TYPE":"PAYLOAD","EPOCH":"2022-01-17T21:21:15.699456","NORAD_CAT_ID":"47830","DECAY_DATE":null,"TIME_SYSTEM":"UTC","FILE":"3276075","MEAN_MOTION":"15.06397173","ECCENTRICITY":"0.00024030","RA_OF_ASC_NODE":"208.3596","ARG_OF_PERICENTER":"74.8316","CENTER_NAME":"EARTH"},{"BSTAR":"0.00003152900000","SEMIMAJOR_AXIS":"6925.343","OBJECT_TYPE":"PAYLOAD","PERIAPSIS":"545.570","DECAY_DATE":null,"EPOCH":"2022-01-17T18:10:50.990304","NORAD_CAT_ID":"47831","FILE":"3276075","MEAN_MOTION":"15.06401771","TIME_SYSTEM":"UTC","ECCENTRICITY":"0.00023660","RA_OF_ASC_NODE":"183.8825","ARG_OF_PERICENTER":"78.5995","CENTER_NAME":"EARTH","COUNTRY_CODE":"US","OBJECT_NAME":"STARLINK-2420","MEAN_ANOMALY":"281.5259","RCS_SIZE":"LARGE","CLASSIFICATION_TYPE":"U","REF_FRAME":"TEME","APOAPSIS":"548.847","TLE_LINE2":"2 47831  53.0609 183.8825 0002366  78.5995 281.5259 15.06401771 48975","GP_ID":"194087289","SITE":"AFETR","PERIOD":"95.592","ELEMENT_SET_NO":"999","INCLINATION":"53.0609","LAUNCH_DATE":"2021-03-11","EPHEMERIS_TYPE":"0","MEAN_ELEMENT_THEORY":"SGP4","OBJECT_ID":"2021-018AW","MEAN_MOTION_DDOT":"0.0000000000000","MEAN_MOTION_DOT":"0.00000188","REV_AT_EPOCH":"4897","TLE_LINE1":"1 47831U 21018AW  22017.75753461  .00000188  00000-0  31529-4 0  9996"},{"MEAN_MOTION":"15.06404008","FILE":"3276075","TIME_SYSTEM":"UTC","CENTER_NAME":"EARTH","ARG_OF_PERICENTER":"71.6089","RA_OF_ASC_NODE":"198.2573","ECCENTRICITY":"0.00024430","OBJECT_TYPE":"PAYLOAD","SEMIMAJOR_AXIS":"6925.336","BSTAR":"0.00013984000000","PERIAPSIS":"545.509","DECAY_DATE":null,"NORAD_CAT_ID":"47832","EPOCH":"2022-01-17T21:54:26.325216","GP_ID":"194087539","TLE_LINE2":"2 47832  53.0550 198.2573 0002443  71.6089 288.5165 15.06404008 48738","ELEMENT_SET_NO":"999","PERIOD":"95.592","INCLINATION":"53.0550","SITE":"AFETR","MEAN_MOTION_DOT":"0.00001802","MEAN_MOTION_DDOT":"0.0000000000000","OBJECT_ID":"2021-018AX","EPHEMERIS_TYPE":"0","LAUNCH_DATE":"2021-03-11","MEAN_ELEMENT_THEORY":"SGP4","REV_AT_EPOCH":"4873","TLE_LINE1":"1 47832U 21018AX  22017.91280469  .00001802  00000-0  13984-3 0  9996","COUNTRY_CODE":"US","OBJECT_NAME":"STARLINK-2422","REF_FRAME":"TEME","CLASSIFICATION_TYPE":"U","MEAN_ANOMALY":"288.5165","RCS_SIZE":"LARGE","APOAPSIS":"548.893"},{"MEAN_MOTION":"15.06398626","FILE":"3276075","TIME_SYSTEM":"UTC","CENTER_NAME":"EARTH","RA_OF_ASC_NODE":"198.4400","ARG_OF_PERICENTER":"77.2738","ECCENTRICITY":"0.00022480","OBJECT_TYPE":"PAYLOAD","SEMIMAJOR_AXIS":"6925.353","BSTAR":"0.00010988000000","PERIAPSIS":"545.661","DECAY_DATE":null,"NORAD_CAT_ID":"47833","EPOCH":"2022-01-17T20:56:02.858784","GP_ID":"194088791","TLE_LINE2":"2 47833  53.0551 198.4400 0002248  77.2738 282.8502 15.06398626 48782","PERIOD":"95.592","INCLINATION":"53.0551","ELEMENT_SET_NO":"999","SITE":"AFETR","MEAN_MOTION_DOT":"0.00001355","MEAN_MOTION_DDOT":"0.0000000000000","OBJECT_ID":"2021-018AY","MEAN_ELEMENT_THEORY":"SGP4","LAUNCH_DATE":"2021-03-11","EPHEMERIS_TYPE":"0","TLE_LINE1":"1 47833U 21018AY  22017.87225531  .00001355  00000-0  10988-3 0  9995","REV_AT_EPOCH":"4878","COUNTRY_CODE":"US","OBJECT_NAME":"STARLINK-2423","REF_FRAME":"TEME","CLASSIFICATION_TYPE":"U","RCS_SIZE":"LARGE","MEAN_ANOMALY":"282.8502","APOAPSIS":"548.775"},{"RCS_SIZE":"LARGE","MEAN_ANOMALY":"278.3308","CLASSIFICATION_TYPE":"U","REF_FRAME":"TEME","APOAPSIS":"548.787","COUNTRY_CODE":"US","OBJECT_NAME":"STARLINK-2424","LAUNCH_DATE":"2021-03-11","EPHEMERIS_TYPE":"0","MEAN_ELEMENT_THEORY":"SGP4","OBJECT_ID":"2021-018AZ","MEAN_MOTION_DDOT":"0.0000000000000","MEAN_MOTION_DOT":"-0.00001039","TLE_LINE1":"1 47834U 21018AZ  22017.88331525 -.00001039  00000-0 -50860-4 0  9993","REV_AT_EPOCH":"4878","TLE_LINE2":"2 47834  53.0536 198.3854 0002256  81.7937 278.3308 15.06396292 48789","GP_ID":"194088540","SITE":"AFETR","ELEMENT_SET_NO":"999","PERIOD":"95.592","INCLINATION":"53.0536","DECAY_DATE":null,"EPOCH":"2022-01-17T21:11:58.437600","NORAD_CAT_ID":"47834","BSTAR":"-0.00005086000000","SEMIMAJOR_AXIS":"6925.360","OBJECT_TYPE":"PAYLOAD","PERIAPSIS":"545.663","ECCENTRICITY":"0.00022560","ARG_OF_PERICENTER":"81.7937","RA_OF_ASC_NODE":"198.3854","CENTER_NAME":"EARTH","FILE":"3276075","MEAN_MOTION":"15.06396292","TIME_SYSTEM":"UTC"},{"TIME_SYSTEM":"UTC","FILE":"3276075","MEAN_MOTION":"15.06400880","ECCENTRICITY":"0.00022800","CENTER_NAME":"EARTH","RA_OF_ASC_NODE":"203.6223","ARG_OF_PERICENTER":"75.0296","PERIAPSIS":"545.632","BSTAR":"0.00016932000000","OBJECT_TYPE":"PAYLOAD","SEMIMAJOR_AXIS":"6925.346","EPOCH":"2022-01-17T19:58:17.981184","NORAD_CAT_ID":"47835","DECAY_DATE":null,"SITE":"AFETR","PERIOD":"95.592","ELEMENT_SET_NO":"999","INCLINATION":"53.0506","GP_ID":"194087790","TLE_LINE2":"2 47835  53.0506 203.6223 0002280  75.0296 285.0945 15.06400880 48644","REV_AT_EPOCH":"4864","TLE_LINE1":"1 47835U 21018BA  22017.83215256  .00002241  00000-0  16932-3 0  9996","OBJECT_ID":"2021-018BA","LAUNCH_DATE":"2021-03-11","EPHEMERIS_TYPE":"0","MEAN_ELEMENT_THEORY":"SGP4","MEAN_MOTION_DOT":"0.00002241","MEAN_MOTION_DDOT":"0.0000000000000","OBJECT_NAME":"STARLINK-2425","COUNTRY_CODE":"US","APOAPSIS":"548.790","CLASSIFICATION_TYPE":"U","RCS_SIZE":"LARGE","MEAN_ANOMALY":"285.0945","REF_FRAME":"TEME"},{"RCS_SIZE":"LARGE","MEAN_ANOMALY":"285.0207","CLASSIFICATION_TYPE":"U","REF_FRAME":"TEME","APOAPSIS":"549.015","COUNTRY_CODE":"US","OBJECT_NAME":"STARLINK-2426","LAUNCH_DATE":"2021-03-11","EPHEMERIS_TYPE":"0","MEAN_ELEMENT_THEORY":"SGP4","OBJECT_ID":"2021-018BB","MEAN_MOTION_DDOT":"0.0000000000000","MEAN_MOTION_DOT":"-0.00000535","TLE_LINE1":"1 47836U 21018BB  22017.89343132 -.00000535  00000-0 -16967-4 0  9993","REV_AT_EPOCH":"4873","TLE_LINE2":"2 47836  53.0559 198.3336 0002606  75.1071 285.0207 15.06401115 48735","GP_ID":"194088040","SITE":"AFETR","PERIOD":"95.592","ELEMENT_SET_NO":"999","INCLINATION":"53.0559","DECAY_DATE":null,"EPOCH":"2022-01-17T21:26:32.466048","NORAD_CAT_ID":"47836","BSTAR":"-0.00001696700000","SEMIMAJOR_AXIS":"6925.345","OBJECT_TYPE":"PAYLOAD","PERIAPSIS":"545.405","ECCENTRICITY":"0.00026060","RA_OF_ASC_NODE":"198.3336","ARG_OF_PERICENTER":"75.1071","CENTER_NAME":"EARTH","FILE":"3276075","MEAN_MOTION":"15.06401115","TIME_SYSTEM":"UTC"}];
